STARLINK-3614           
1 51771U 22017D   25251.78080602  .00000560  00000+0  53290-4 0  9992
2 51771  53.2177  75.7315 0001243  83.0480 277.0654 15.08846427195145
STARLINK-3623           
1 51772U 22017E   25251.83969086  .00000683  00000+0  61020-4 0  9997
2 51772  53.2176  75.4776 0001133  93.1799 266.9323 15.08840497195147
STARLINK-3624           
1 51773U 22017F   25251.77808382 -.00006869  00000+0 -41365-3 0  9995
2 51773  53.2175  75.7258 0001090  91.4656 268.6462 15.08859809195140
STARLINK-3629           
1 51774U 22017G   25251.83234388  .00000249  00000+0  33714-4 0  9996
2 51774  53.2178  75.5112 0001194  88.9615 271.1514 15.08840887195112
STARLINK-3620           
1 51775U 22017H   25251.77712062  .00001535  00000+0  11451-3 0  9992
2 51775  53.2177  75.7585 0001299  88.1088 272.0053 15.08850733195142
STARLINK-3608           
1 51776U 22017J   25251.82866053  .00000924  00000+0  76158-4 0  9996
2 51776  53.2179  75.5268 0001243  89.5494 270.5640 15.08836517195112
STARLINK-3625           
1 51777U 22017K   25251.83328802 -.00000207  00000+0  51050-5 0  9993
2 51777  53.2182  75.4781 0001344  88.2313 271.8833 15.08840282195149
STARLINK-3615           
1 51778U 22017L   25251.77067620 -.00000381  00000+0 -58520-5 0  9998
2 51778  53.2191  65.6624 0001480  92.9367 267.1795 15.08842072195097
STARLINK-3611           
1 51779U 22017M   25251.82961559  .00000036  00000+0  20348-4 0  9990
2 51779  53.2181  75.5707 0001323  90.6654 269.4490 15.08837954195112
STARLINK-3617           
1 51780U 22017N   25251.94641589  .00000361  00000+0  40749-4 0  9991
2 51780  53.2164  74.9872 0001265  92.5694 267.5443 15.08835810194981
STARLINK-3580           
1 51781U 22017P   25251.81762443  .00001527  00000+0  11402-3 0  9999
2 51781  53.2180  75.5383 0001268  85.6131 274.5006 15.08828887194963
STARLINK-3616           
1 51782U 22017Q   25251.85351074  .00000389  00000+0  42520-4 0  9999
2 51782  53.2167  85.5687 0001332  87.6279 272.4866 15.08838550194738
STARLINK-3628           
1 51783U 22017R   25251.82225793 -.00002452  00000+0 -13611-3 0  9998
2 51783  53.2166  75.6038 0001046 106.0960 254.0148 15.08828212194961
STARLINK-3632           
1 51784U 22017S   25251.96757606 -.00000589  00000+0 -18908-4 0  9991
2 51784  53.2167  84.9016 0001269  88.6026 271.5112 15.08834242194849
STARLINK-3646           
1 51785U 22017T   25251.81120227 -.00006040  00000+0 -36153-3 0  9998
2 51785  53.2182  75.5762 0000400  10.1694 349.9306 15.08865444194964
STARLINK-3638           
1 51786U 22017U   25251.82772789  .00000597  00000+0  55581-4 0  9992
2 51786  53.2182  85.5311 0001459  88.5699 271.5461 15.08841386194821
