[{"OBJECT_NAME":"STARLINK-3614","OBJECT_ID":"2022-017D","EPOCH":"2025-09-08T18:44:21.640128","MEAN_MOTION":15.08846427,"ECCENTRICITY":0.00012433,"INCLINATION":53.2177,"RA_OF_ASC_NODE":75.7315,"ARG_OF_PERICENTER":83.048,"MEAN_ANOMALY":277.0654,"EPHEMERIS_TYPE":0,"CLASSIFICATION_TYPE":"U","NORAD_CAT_ID":51771,"ELEMENT_SET_NO":999,"REV_AT_EPOCH":19514,"BSTAR":5.3290215e-5,"MEAN_MOTION_DOT":5.6e-6,"MEAN_MOTION_DDOT":0},{"OBJECT_NAME":"STARLINK-3623","OBJECT_ID":"2022-017E","EPOCH":"2025-09-08T20:09:09.290304","MEAN_MOTION":15.08840497,"ECCENTRICITY":0.00011331,"INCLINATION":53.2176,"RA_OF_ASC_NODE":75.4776,"ARG_OF_PERICENTER":93.1799,"MEAN_ANOMALY":266.9323,"EPHEMERIS_TYPE":0,"CLASSIFICATION_TYPE":"U","NORAD_CAT_ID":51772,"ELEMENT_SET_NO":999,"REV_AT_EPOCH":19514,"BSTAR":6.1020451e-5,"MEAN_MOTION_DOT":6.83e-6,"MEAN_MOTION_DDOT":0},{"OBJECT_NAME":"STARLINK-3624","OBJECT_ID":"2022-017F","EPOCH":"2025-09-08T18:40:26.442048","MEAN_MOTION":15.08859809,"ECCENTRICITY":0.00010909,"INCLINATION":53.2175,"RA_OF_ASC_NODE":75.7258,"ARG_OF_PERICENTER":91.4656,"MEAN_ANOMALY":268.6462,"EPHEMERIS_TYPE":0,"CLASSIFICATION_TYPE":"U","NORAD_CAT_ID":51773,"ELEMENT_SET_NO":999,"REV_AT_EPOCH":19514,"BSTAR":-0.00041365161,"MEAN_MOTION_DOT":-6.869e-5,"MEAN_MOTION_DDOT":0},{"OBJECT_NAME":"STARLINK-3629","OBJECT_ID":"2022-017G","EPOCH":"2025-09-08T19:58:34.511232","MEAN_MOTION":15.08840887,"ECCENTRICITY":0.00011949,"INCLINATION":53.2178,"RA_OF_ASC_NODE":75.5112,"ARG_OF_PERICENTER":88.9615,"MEAN_ANOMALY":271.1514,"EPHEMERIS_TYPE":0,"CLASSIFICATION_TYPE":"U","NORAD_CAT_ID":51774,"ELEMENT_SET_NO":999,"REV_AT_EPOCH":19511,"BSTAR":3.3713504e-5,"MEAN_MOTION_DOT":2.49e-6,"MEAN_MOTION_DDOT":0},{"OBJECT_NAME":"STARLINK-3620","OBJECT_ID":"2022-017H","EPOCH":"2025-09-08T18:39:03.221568","MEAN_MOTION":15.08850733,"ECCENTRICITY":0.00012993,"INCLINATION":53.2177,"RA_OF_ASC_NODE":75.7585,"ARG_OF_PERICENTER":88.1088,"MEAN_ANOMALY":272.0053,"EPHEMERIS_TYPE":0,"CLASSIFICATION_TYPE":"U","NORAD_CAT_ID":51775,"ELEMENT_SET_NO":999,"REV_AT_EPOCH":19514,"BSTAR":0.00011450749,"MEAN_MOTION_DOT":1.535e-5,"MEAN_MOTION_DDOT":0},{"OBJECT_NAME":"STARLINK-3608","OBJECT_ID":"2022-017J","EPOCH":"2025-09-08T19:53:16.269792","MEAN_MOTION":15.08836517,"ECCENTRICITY":0.00012435,"INCLINATION":53.2179,"RA_OF_ASC_NODE":75.5268,"ARG_OF_PERICENTER":89.5494,"MEAN_ANOMALY":270.564,"EPHEMERIS_TYPE":0,"CLASSIFICATION_TYPE":"U","NORAD_CAT_ID":51776,"ELEMENT_SET_NO":999,"REV_AT_EPOCH":19511,"BSTAR":7.6157656e-5,"MEAN_MOTION_DOT":9.24e-6,"MEAN_MOTION_DDOT":0},{"OBJECT_NAME":"STARLINK-3625","OBJECT_ID":"2022-017K","EPOCH":"2025-09-08T19:59:56.084928","MEAN_MOTION":15.08840282,"ECCENTRICITY":0.00013441,"INCLINATION":53.2182,"RA_OF_ASC_NODE":75.4781,"ARG_OF_PERICENTER":88.2313,"MEAN_ANOMALY":271.8833,"EPHEMERIS_TYPE":0,"CLASSIFICATION_TYPE":"U","NORAD_CAT_ID":51777,"ELEMENT_SET_NO":999,"REV_AT_EPOCH":19514,"BSTAR":5.104994e-6,"MEAN_MOTION_DOT":-2.07e-6,"MEAN_MOTION_DDOT":0},{"OBJECT_NAME":"STARLINK-3615","OBJECT_ID":"2022-017L","EPOCH":"2025-09-08T18:29:46.423680","MEAN_MOTION":15.08842072,"ECCENTRICITY":0.00014802,"INCLINATION":53.2191,"RA_OF_ASC_NODE":65.6624,"ARG_OF_PERICENTER":92.9367,"MEAN_ANOMALY":267.1795,"EPHEMERIS_TYPE":0,"CLASSIFICATION_TYPE":"U","NORAD_CAT_ID":51778,"ELEMENT_SET_NO":999,"REV_AT_EPOCH":19509,"BSTAR":-5.851988e-6,"MEAN_MOTION_DOT":-3.81e-6,"MEAN_MOTION_DDOT":0},{"OBJECT_NAME":"STARLINK-3611","OBJECT_ID":"2022-017M","EPOCH":"2025-09-08T19:54:38.786976","MEAN_MOTION":15.08837954,"ECCENTRICITY":0.00013239,"INCLINATION":53.2181,"RA_OF_ASC_NODE":75.5707,"ARG_OF_PERICENTER":90.6654,"MEAN_ANOMALY":269.449,"EPHEMERIS_TYPE":0,"CLASSIFICATION_TYPE":"U","NORAD_CAT_ID":51779,"ELEMENT_SET_NO":999,"REV_AT_EPOCH":19511,"BSTAR":2.0348245e-5,"MEAN_MOTION_DOT":3.6e-7,"MEAN_MOTION_DDOT":0},{"OBJECT_NAME":"STARLINK-3617","OBJECT_ID":"2022-017N","EPOCH":"2025-09-08T22:42:50.332896","MEAN_MOTION":15.0883581,"ECCENTRICITY":0.00012652,"INCLINATION":53.2164,"RA_OF_ASC_NODE":74.9872,"ARG_OF_PERICENTER":92.5694,"MEAN_ANOMALY":267.5443,"EPHEMERIS_TYPE":0,"CLASSIFICATION_TYPE":"U","NORAD_CAT_ID":51780,"ELEMENT_SET_NO":999,"REV_AT_EPOCH":19498,"BSTAR":4.0748828e-5,"MEAN_MOTION_DOT":3.61e-6,"MEAN_MOTION_DDOT":0},{"OBJECT_NAME":"STARLINK-3580","OBJECT_ID":"2022-017P","EPOCH":"2025-09-08T19:37:22.750752","MEAN_MOTION":15.08828887,"ECCENTRICITY":0.00012686,"INCLINATION":53.218,"RA_OF_ASC_NODE":75.5383,"ARG_OF_PERICENTER":85.6131,"MEAN_ANOMALY":274.5006,"EPHEMERIS_TYPE":0,"CLASSIFICATION_TYPE":"U","NORAD_CAT_ID":51781,"ELEMENT_SET_NO":999,"REV_AT_EPOCH":19496,"BSTAR":0.0001140204,"MEAN_MOTION_DOT":1.527e-5,"MEAN_MOTION_DDOT":0},{"OBJECT_NAME":"STARLINK-3616","OBJECT_ID":"2022-017Q","EPOCH":"2025-09-08T20:29:03.327936","MEAN_MOTION":15.0883855,"ECCENTRICITY":0.00013329,"INCLINATION":53.2167,"RA_OF_ASC_NODE":85.5687,"ARG_OF_PERICENTER":87.6279,"MEAN_ANOMALY":272.4866,"EPHEMERIS_TYPE":0,"CLASSIFICATION_TYPE":"U","NORAD_CAT_ID":51782,"ELEMENT_SET_NO":999,"REV_AT_EPOCH":19473,"BSTAR":4.2519728e-5,"MEAN_MOTION_DOT":3.89e-6,"MEAN_MOTION_DDOT":0},{"OBJECT_NAME":"STARLINK-3628","OBJECT_ID":"2022-017R","EPOCH":"2025-09-08T19:44:03.085152","MEAN_MOTION":15.08828212,"ECCENTRICITY":0.00010465,"INCLINATION":53.2166,"RA_OF_ASC_NODE":75.6038,"ARG_OF_PERICENTER":106.096,"MEAN_ANOMALY":254.0148,"EPHEMERIS_TYPE":0,"CLASSIFICATION_TYPE":"U","NORAD_CAT_ID":51783,"ELEMENT_SET_NO":999,"REV_AT_EPOCH":19496,"BSTAR":-0.00013610571,"MEAN_MOTION_DOT":-2.452e-5,"MEAN_MOTION_DDOT":0},{"OBJECT_NAME":"STARLINK-3632","OBJECT_ID":"2022-017S","EPOCH":"2025-09-08T23:13:18.571584","MEAN_MOTION":15.08834242,"ECCENTRICITY":0.00012697,"INCLINATION":53.2167,"RA_OF_ASC_NODE":84.9016,"ARG_OF_PERICENTER":88.6026,"MEAN_ANOMALY":271.5112,"EPHEMERIS_TYPE":0,"CLASSIFICATION_TYPE":"U","NORAD_CAT_ID":51784,"ELEMENT_SET_NO":999,"REV_AT_EPOCH":19484,"BSTAR":-1.8907863e-5,"MEAN_MOTION_DOT":-5.89e-6,"MEAN_MOTION_DDOT":0},{"OBJECT_NAME":"STARLINK-3646","OBJECT_ID":"2022-017T","EPOCH":"2025-09-08T19:28:07.876128","MEAN_MOTION":15.08865444,"ECCENTRICITY":4.009e-5,"INCLINATION":53.2182,"RA_OF_ASC_NODE":75.5762,"ARG_OF_PERICENTER":10.1694,"MEAN_ANOMALY":349.9306,"EPHEMERIS_TYPE":0,"CLASSIFICATION_TYPE":"U","NORAD_CAT_ID":51785,"ELEMENT_SET_NO":999,"REV_AT_EPOCH":19496,"BSTAR":-0.00036152631,"MEAN_MOTION_DOT":-6.04e-5,"MEAN_MOTION_DDOT":0},{"OBJECT_NAME":"STARLINK-3638","OBJECT_ID":"2022-017U","EPOCH":"2025-09-08T19:51:55.689696","MEAN_MOTION":15.08841386,"ECCENTRICITY":0.00014595,"INCLINATION":53.2182,"RA_OF_ASC_NODE":85.5311,"ARG_OF_PERICENTER":88.5699,"MEAN_ANOMALY":271.5461,"EPHEMERIS_TYPE":0,"CLASSIFICATION_TYPE":"U","NORAD_CAT_ID":51786,"ELEMENT_SET_NO":999,"REV_AT_EPOCH":19482,"BSTAR":5.5581302e-5,"MEAN_MOTION_DOT":5.97e-6,"MEAN_MOTION_DDOT":0}]
